{
  "norad_id": 39020,
  "name": "EUTELSAT 70B",
  "history": [
    {
      "epoch": "2026-04-10T11:09:49.844736Z",
      "apogee_km": 35793.94365340322,
      "perigee_km": 35778.629534753854,
      "latitude_deg": 0.04845301858668841,
      "longitude_deg": 70.53693024328695,
      "height_km": 35780.530382637175,
      "semi_major_axis_km": 42164.423594078544,
      "eccentricity": 0.0001816,
      "inclination_deg": 0.0663,
      "raan_deg": 9.0216,
      "arg_perigee_deg": 20.7534,
      "mean_anomaly_deg": 46.9005,
      "mean_motion_rev_day": 1.00272885
    },
    {
      "epoch": "2026-04-11T19:54:03.533184Z",
      "apogee_km": 35794.0089590652,
      "perigee_km": 35778.49246438729,
      "latitude_deg": -0.023240888542054722,
      "longitude_deg": 70.52735226966671,
      "height_km": 35793.51403877472,
      "semi_major_axis_km": 42164.387711726245,
      "eccentricity": 0.000184,
      "inclination_deg": 0.0671,
      "raan_deg": 11.7678,
      "arg_perigee_deg": 21.0791,
      "mean_anomaly_deg": 176.236,
      "mean_motion_rev_day": 1.00273013
    },
    {
      "epoch": "2026-04-13T04:40:38.850240Z",
      "apogee_km": 35794.12246683527,
      "perigee_km": 35778.31167734532,
      "latitude_deg": -0.015092954917704987,
      "longitude_deg": 70.51283912656271,
      "height_km": 35781.022772373595,
      "semi_major_axis_km": 42164.3540720903,
      "eccentricity": 0.00018749,
      "inclination_deg": 0.0681,
      "raan_deg": 14.1882,
      "arg_perigee_deg": 21.8351,
      "mean_anomaly_deg": 306.0595,
      "mean_motion_rev_day": 1.00273133
    },
    {
      "epoch": "2026-04-14T20:44:42.995328Z",
      "apogee_km": 35793.38304925077,
      "perigee_km": 35778.3895225703,
      "latitude_deg": -0.04948720850320542,
      "longitude_deg": 70.54091174628597,
      "height_km": 35792.89182873664,
      "semi_major_axis_km": 42164.02328591054,
      "eccentricity": 0.0001778,
      "inclination_deg": 0.0675,
      "raan_deg": 349.7962,
      "arg_perigee_deg": 51.5395,
      "mean_anomaly_deg": 183.4254,
      "mean_motion_rev_day": 1.00274313
    },
    {
      "epoch": "2026-04-15T15:27:26.059104Z",
      "apogee_km": 35808.79455783878,
      "perigee_km": 35778.6501127859,
      "latitude_deg": -0.004272708513515312,
      "longitude_deg": 70.54690088920064,
      "height_km": 35800.36271404138,
      "semi_major_axis_km": 42171.85933531234,
      "eccentricity": 0.0003574,
      "inclination_deg": 0.0676,
      "raan_deg": 351.595,
      "arg_perigee_deg": 36.5057,
      "mean_anomaly_deg": 118.0783,
      "mean_motion_rev_day": 1.00246366
    },
    {
      "epoch": "2026-04-16T19:27:46.803168Z",
      "apogee_km": 35808.37290330287,
      "perigee_km": 35765.457313267056,
      "latitude_deg": -0.045418604169929364,
      "longitude_deg": 70.48992370670608,
      "height_km": 35807.97205864057,
      "semi_major_axis_km": 42165.05210828497,
      "eccentricity": 0.0005089,
      "inclination_deg": 0.0677,
      "raan_deg": 354.8824,
      "arg_perigee_deg": 30.5361,
      "mean_anomaly_deg": 181.9801,
      "mean_motion_rev_day": 1.00270643
    },
    {
      "epoch": "2026-04-17T22:50:30.317856Z",
      "apogee_km": 35808.49930528363,
      "perigee_km": 35765.28773870407,
      "latitude_deg": -0.0486452963756312,
      "longitude_deg": 70.44109744364559,
      "height_km": 35799.56654991581,
      "semi_major_axis_km": 42165.03052199385,
      "eccentricity": 0.00051241,
      "inclination_deg": 0.0672,
      "raan_deg": 358.344,
      "arg_perigee_deg": 28.1563,
      "mean_anomaly_deg": 232.7003,
      "mean_motion_rev_day": 1.0027072
    },
    {
      "epoch": "2026-04-18T17:40:01.759008Z",
      "apogee_km": 35808.51663724115,
      "perigee_km": 35765.23003762874,
      "latitude_deg": -0.026719838796757486,
      "longitude_deg": 70.51111781069403,
      "height_km": 35806.12932615065,
      "semi_major_axis_km": 42165.01033743495,
      "eccentricity": 0.0005133,
      "inclination_deg": 0.0674,
      "raan_deg": 0.2556,
      "arg_perigee_deg": 26.8091,
      "mean_anomaly_deg": 155.2876,
      "mean_motion_rev_day": 1.00270792
    },
    {
      "epoch": "2026-04-19T19:26:38.655168Z",
      "apogee_km": 35808.51725358582,
      "perigee_km": 35765.180081316816,
      "latitude_deg": -0.04375444340036883,
      "longitude_deg": 70.4840547963721,
      "height_km": 35808.10904095992,
      "semi_major_axis_km": 42164.98566745132,
      "eccentricity": 0.0005139,
      "inclination_deg": 0.0674,
      "raan_deg": 3.0108,
      "arg_perigee_deg": 25.0135,
      "mean_anomaly_deg": 182.0376,
      "mean_motion_rev_day": 1.0027088
    },
    {
      "epoch": "2026-04-20T12:26:53.636640Z",
      "apogee_km": 35808.46880448667,
      "perigee_km": 35765.19152548787,
      "latitude_deg": 0.046982716217283164,
      "longitude_deg": 70.54433021719998,
      "height_km": 35781.54479273333,
      "semi_major_axis_km": 42164.967164987276,
      "eccentricity": 0.00051319,
      "inclination_deg": 0.0674,
      "raan_deg": 4.5835,
      "arg_perigee_deg": 23.8932,
      "mean_anomaly_deg": 77.3442,
      "mean_motion_rev_day": 1.00270946
    },
    {
      "epoch": "2026-04-21T21:11:18.100032Z",
      "apogee_km": 35808.45412619416,
      "perigee_km": 35765.13387608359,
      "latitude_deg": -0.05437216424266308,
      "longitude_deg": 70.46090489016663,
      "height_km": 35805.39317623943,
      "semi_major_axis_km": 42164.93100113888,
      "eccentricity": 0.0005137,
      "inclination_deg": 0.0677,
      "raan_deg": 7.7907,
      "arg_perigee_deg": 21.8397,
      "mean_anomaly_deg": 208.6345,
      "mean_motion_rev_day": 1.00271075
    },
    {
      "epoch": "2026-04-22T18:41:38.751072Z",
      "apogee_km": 35808.40105015133,
      "perigee_km": 35765.13985510494,
      "latitude_deg": -0.02874175563581405,
      "longitude_deg": 70.49955132554685,
      "height_km": 35807.74591341677,
      "semi_major_axis_km": 42164.90745262814,
      "eccentricity": 0.000513,
      "inclination_deg": 0.068,
      "raan_deg": 9.6942,
      "arg_perigee_deg": 20.5139,
      "mean_anomaly_deg": 171.5246,
      "mean_motion_rev_day": 1.00271159
    },
    {
      "epoch": "2026-04-23T12:19:10.752096Z",
      "apogee_km": 35808.322099472796,
      "perigee_km": 35765.18404373834,
      "latitude_deg": 0.05279071133425476,
      "longitude_deg": 70.54882677622605,
      "height_km": 35781.053578348794,
      "semi_major_axis_km": 42164.89007160557,
      "eccentricity": 0.00051154,
      "inclination_deg": 0.0681,
      "raan_deg": 11.2085,
      "arg_perigee_deg": 19.5042,
      "mean_anomaly_deg": 76.126,
      "mean_motion_rev_day": 1.00271221
    },
    {
      "epoch": "2026-04-24T19:07:16.853376Z",
      "apogee_km": 35808.256959151004,
      "perigee_km": 35765.18134210751,
      "latitude_deg": -0.030105214144064626,
      "longitude_deg": 70.4936588652634,
      "height_km": 35807.83088318208,
      "semi_major_axis_km": 42164.85615062926,
      "eccentricity": 0.0005108,
      "inclination_deg": 0.0688,
      "raan_deg": 13.9826,
      "arg_perigee_deg": 17.6191,
      "mean_anomaly_deg": 178.526,
      "mean_motion_rev_day": 1.00271342
    },
    {
      "epoch": "2026-04-25T19:04:47.338176Z",
      "apogee_km": 35808.1811180322,
      "perigee_km": 35765.20672235833,
      "latitude_deg": -0.028817207775002913,
      "longitude_deg": 70.49286538406353,
      "height_km": 35807.75692295282,
      "semi_major_axis_km": 42164.830920195265,
      "eccentricity": 0.0005096,
      "inclination_deg": 0.0694,
      "raan_deg": 16.0702,
      "arg_perigee_deg": 16.0771,
      "mean_anomaly_deg": 178.3405,
      "mean_motion_rev_day": 1.00271432
    }
  ]
}